NORAD_CAT_ID,OBJECT_NAME,OBJECT_TYPE,EPOCH,MEAN_MOTION,ECCENTRICITY,INCLINATION,RA_OF_ASC_NODE,ARG_OF_PERICENTER,MEAN_ANOMALY,BSTAR,MEAN_MOTION_DOT,MEAN_MOTION_DDOT,TLE_LINE0,TLE_LINE1,TLE_LINE2,SEMIMAJOR_AXIS,PERIOD,APOGEE,PERIGEE,DECAYED
37853,RAX-2,PAYLOAD,2020-04-25 03:59:25,15.04062201,0.0168053,101.715,167.1122,249.3608,108.9511,4.3064e-05,6.49e-06,0.0,0 RAX-2,1 37853U 11061D   20116.16626411 +.00000649 +00000-0 +43064-4 0  9992,2 37853 101.7150 167.1122 0168053 249.3608 108.9511 15.04062201462826,6932.523,95.741,670.8910000000002,437.885,0.0
37853,RAX-2,PAYLOAD,2020-04-25 19:57:21,15.04063564,0.016805700000000003,101.7149,168.11700000000005,247.3918,110.944,4.9432e-05,7.699999999999999e-06,0.0,0 RAX-2,1 37853U 11061D   20116.83149808  .00000770  00000-0  49432-4 0  9996,2 37853 101.7149 168.1170 0168057 247.3918 110.9440 15.04063564463406,6932.519,95.741,670.8889999999999,437.87800000000004,0.0
37853,RAX-2,PAYLOAD,2020-04-26 05:32:07,15.040647,0.0168065,101.7149,168.7199,246.2114,112.1396,5.5239e-05,8.8e-06,0.0,0 RAX-2,1 37853U 11061D   20117.23063825 +.00000880 +00000-0 +55239-4 0  9999,2 37853 101.7149 168.7199 0168065 246.2114 112.1396 15.04064700462987,6932.515,95.741,670.8910000000002,437.869,0.0
37853,RAX-2,PAYLOAD,2020-04-26 16:42:40,15.04065691,0.016806799999999997,101.7149,169.4233,244.8319,113.538,5.8275e-05,9.38e-06,0.0,0 RAX-2,1 37853U 11061D   20117.69630169 +.00000938 +00000-0 +58275-4 0  9997,2 37853 101.7149 169.4233 0168068 244.8319 113.5380 15.04065691463055,6932.512,95.74,670.89,437.86400000000003,0.0
37853,RAX-2,PAYLOAD,2020-04-27 00:41:38,15.04066446,0.0168071,101.7148,169.9257,243.851,114.5329,6.0126999999999995e-05,9.73e-06,0.0,0 RAX-2,1 37853U 11061D   20118.02891822  .00000973  00000-0  60127-4 0  9998,2 37853 101.7148 169.9257 0168071 243.8510 114.5329 15.04066446463582,6932.51,95.74,670.89,437.85900000000004,0.0
37853,RAX-2,PAYLOAD,2020-04-27 03:53:13,15.04067091,0.0168072,101.7148,170.1266,243.4567,114.9331,6.3974e-05,1.046e-05,0.0,0 RAX-2,1 37853U 11061D   20118.16196475 +.00001046 +00000-0 +63974-4 0  9990,2 37853 101.7148 170.1266 0168072 243.4567 114.9331 15.04067091463129,6932.5080000000025,95.74,670.8889999999999,437.85699999999997,0.0
37853,RAX-2,PAYLOAD,2020-04-27 15:03:47,15.04067404,0.0168082,101.7148,170.8299,242.0752,116.3353,5.8185e-05,9.36e-06,0.0,0 RAX-2,1 37853U 11061D   20118.62762790 +.00000936 +00000-0 +58185-4 0  9995,2 37853 101.7148 170.8299 0168082 242.0752 116.3353 15.04067404463199,6932.507,95.74,670.895,437.849,0.0
37853,RAX-2,PAYLOAD,2020-04-28 02:14:20,15.04069006,0.016807299999999997,101.7148,171.5333,240.699,117.7335,6.5706e-05,1.079e-05,0.0,0 RAX-2,1 37853U 11061D   20119.09329069  .00001079  00000-0  65706-4 0  9991,2 37853 101.7148 171.5333 0168073 240.6990 117.7335 15.04069006463740,6932.5019999999995,95.74,670.8839999999999,437.85,0.0
37853,RAX-2,PAYLOAD,2020-04-28 03:50:07,15.04069578,0.0168075,101.7148,171.6338,240.5016,117.9341,6.967e-05,1.154e-05,0.0,0 RAX-2,1 37853U 11061D   20119.15981381 +.00001154 +00000-0 +69670-4 0  9997,2 37853 101.7148 171.6338 0168075 240.5016 117.9341 15.04069578463277,6932.5,95.74,670.883,437.847,0.0
37853,RAX-2,PAYLOAD,2020-04-28 18:12:16,15.04070682,0.0168071,101.7148,172.5382,238.734,119.7315,6.8007e-05,1.123e-05,0.0,0 RAX-2,1 37853U 11061D   20119.75852289 +.00001123 +00000-0 +68007-4 0  9996,2 37853 101.7148 172.5382 0168071 238.7340 119.7315 15.04070682463360,6932.4969999999985,95.74,670.877,437.847,0.0
37853,RAX-2,PAYLOAD,2020-04-29 02:11:14,15.04071684,0.0168075,101.7148,173.0406,237.7459,120.7369,6.9698e-05,1.155e-05,0.0,0 RAX-2,1 37853U 11061D   20120.09113866 +.00001155 +00000-0 +69698-4 0  9998,2 37853 101.7148 173.0406 0168075 237.7459 120.7369 15.04071684463417,6932.494000000002,95.74,670.877,437.841,0.0
37853,RAX-2,PAYLOAD,2020-04-29 08:34:24,15.04072304,0.016807299999999997,101.7148,173.4425,236.9586,121.5384,7.002600000000001e-05,1.161e-05,0.0,0 RAX-2,1 37853U 11061D   20120.35723147  .00001161  00000-0  70026-4 0  9990,2 37853 101.7148 173.4425 0168073 236.9586 121.5384 15.04072304463935,6932.4919999999975,95.74,670.873,437.84,0.0
37853,RAX-2,PAYLOAD,2020-04-29 14:57:35,15.04073064,0.0168071,101.7148,173.8444,236.1711,122.3405,7.0426e-05,1.169e-05,0.0,0 RAX-2,1 37853U 11061D   20120.62332395 +.00001169 +00000-0 +70426-4 0  9993,2 37853 101.7148 173.8444 0168071 236.1711 122.3405 15.04073064463498,6932.489000000001,95.74,670.87,437.839,0.0
37853,RAX-2,PAYLOAD,2020-04-30 02:08:08,15.0407405,0.0168077,101.7148,174.5478,234.7898,123.7478,6.8265e-05,1.128e-05,0.0,0 RAX-2,1 37853U 11061D   20121.08898575 +.00001128 +00000-0 +68265-4 0  9994,2 37853 101.7148 174.5478 0168077 234.7898 123.7478 15.04074050463568,6932.486,95.74,670.8710000000002,437.832,0.0
37853,RAX-2,PAYLOAD,2020-04-30 16:30:16,15.04075285,0.0168078,101.7149,175.4521,233.0166,125.556,6.4861e-05,1.064e-05,0.0,0 RAX-2,1 37853U 11061D   20121.68769362  .00001064  00000-0  64861-4 0  9998,2 37853 101.7149 175.4521 0168078 233.0166 125.5560 15.04075285464136,6932.483,95.74,670.867,437.82800000000003,0.0
37853,RAX-2,PAYLOAD,2020-05-01 02:05:02,15.04076198,0.0168081,101.7148,176.0551,231.8345,126.7622,6.2941e-05,1.027e-05,0.0,0 RAX-2,1 37853U 11061D   20122.08683185 +.00001027 +00000-0 +62941-4 0  9997,2 37853 101.7148 176.0551 0168081 231.8345 126.7622 15.04076198463713,6932.48,95.74,670.867,437.82300000000004,0.0
37853,RAX-2,PAYLOAD,2020-05-01 18:02:58,15.04077552,0.0168081,101.7148,177.0599,229.8621,128.7763,5.7993999999999994e-05,9.33e-06,0.0,0 RAX-2,1 37853U 11061D   20122.75206197  .00000933  00000-0  57994-4 0  9992,2 37853 101.7148 177.0599 0168081 229.8621 128.7763 15.04077552464297,6932.476,95.74,670.862,437.819,0.0
37853,RAX-2,PAYLOAD,2020-05-02 05:13:31,15.04078506,0.0168081,101.7147,177.7633,228.482,130.1867,5.5498e-05,8.86e-06,0.0,0 RAX-2,1 37853U 11061D   20123.21772305 +.00000886 +00000-0 +55498-4 0  9997,2 37853 101.7147 177.7633 0168081 228.4820 130.1867 15.04078506463884,6932.473000000001,95.74,670.8589999999998,437.816,0.0
37853,RAX-2,PAYLOAD,2020-05-02 17:59:51,15.04079702,0.0168074,101.7147,178.5672,226.90400000000002,131.8005,5.2879e-05,8.36e-06,0.0,0 RAX-2,1 37853U 11061D   20123.74990664 +.00000836 +00000-0 +52879-4 0  9990,2 37853 101.7147 178.5672 0168074 226.9040 131.8005 15.04079702463965,6932.469,95.74,670.8510000000001,437.81699999999995,0.0
37853,RAX-2,PAYLOAD,2020-05-03 01:58:49,15.04080183,0.016808,101.7146,179.0696,225.9192,132.808,4.9151000000000004e-05,7.66e-06,0.0,0 RAX-2,1 37853U 11061D   20124.08252136 +.00000766 +00000-0 +49151-4 0  9994,2 37853 101.7146 179.0696 0168080 225.9192 132.8080 15.04080183464498,6932.468000000003,95.74,670.8539999999998,437.81199999999995,0.0
37853,RAX-2,PAYLOAD,2020-05-03 17:56:45,15.04081639,0.0168077,101.7145,180.0744,223.9444,134.8299,4.7127e-05,7.27e-06,0.0,0 RAX-2,1 37853U 11061D   20124.74775059 +.00000727 +00000-0 +47127-4 0  9999,2 37853 101.7145 180.0744 0168077 223.9444 134.8299 15.04081639464117,6932.4630000000025,95.73899999999999,670.847,437.809,0.0
37853,RAX-2,PAYLOAD,2020-05-04 09:54:41,15.04082898,0.016809,101.7144,181.0792,221.9683,136.8547,4.4208999999999996e-05,6.72e-06,0.0,0 RAX-2,1 37853U 11061D   20125.41297955 +.00000672 +00000-0 +44209-4 0  9995,2 37853 101.7144 181.0792 0168090 221.9683 136.8547 15.04082898464215,6932.459,95.73899999999999,670.852,437.79699999999997,0.0
37853,RAX-2,PAYLOAD,2020-05-04 17:53:39,15.04082919,0.0168095,101.7143,181.5816,220.9811,137.8668,3.8256e-05,5.59e-06,0.0,0 RAX-2,1 37853U 11061D   20125.74559436 +.00000559 +00000-0 +38256-4 0  9995,2 37853 101.7143 181.5816 0168095 220.9811 137.8668 15.04082919464267,6932.459,95.73899999999999,670.855,437.793,0.0
37853,RAX-2,PAYLOAD,2020-05-05 03:28:24,15.040831200000001,0.016809900000000003,101.7142,182.1845,219.8014,139.0768,3.2942e-05,4.58e-06,0.0,0 RAX-2,1 37853U 11061D   20126.14473193 +.00000458 +00000-0 +32942-4 0  9999,2 37853 101.7142 182.1845 0168099 219.8014 139.0768 15.04083120464328,6932.459,95.73899999999999,670.8580000000002,437.79,0.0
37853,RAX-2,PAYLOAD,2020-05-05 09:51:35,15.04083495,0.016810299999999997,101.7141,182.5864,219.0104,139.8884,3.1772e-05,4.36e-06,0.0,0 RAX-2,1 37853U 11061D   20126.41082352  .00000436  00000-0  31772-4 0  9998,2 37853 101.7141 182.5864 0168103 219.0104 139.8884 15.04083495464849,6932.4569999999985,95.73899999999999,670.8589999999998,437.786,0.0
37853,RAX-2,PAYLOAD,2020-05-05 17:50:33,15.04083775,0.0168106,101.714,183.0888,218.0251,140.8997,2.8715e-05,3.78e-06,0.0,0 RAX-2,1 37853U 11061D   20126.74343807 +.00000378 +00000-0 +28715-4 0  9997,2 37853 101.7140 183.0888 0168106 218.0251 140.8997 15.04083775464416,6932.4569999999985,95.73899999999999,670.86,437.783,0.0
37853,RAX-2,PAYLOAD,2020-05-06 03:25:18,15.04084745,0.0168109,101.7139,183.6917,216.8462,142.1103,3.1064e-05,4.23e-06,0.0,0 RAX-2,1 37853U 11061D   20127.14257524 +.00000423 +00000-0 +31064-4 0  9994,2 37853 101.7139 183.6917 0168109 216.8462 142.1103 15.04084745464474,6932.454000000002,95.73899999999999,670.8589999999998,437.778,0.0
37853,RAX-2,PAYLOAD,2020-05-06 16:11:39,15.04085243,0.0168113,101.7137,184.4955,215.2689,143.7306,2.7865e-05,3.62e-06,0.0,0 RAX-2,1 37853U 11061D   20127.67475846 +.00000362 +00000-0 +27865-4 0  9997,2 37853 101.7137 184.4955 0168113 215.2689 143.7306 15.04085243465031,6932.4519999999975,95.73899999999999,670.8610000000001,437.774,0.0
37853,RAX-2,PAYLOAD,2020-05-07 01:46:24,15.04085689,0.0168119,101.7136,185.0983,214.0891,144.9433,2.6991e-05,3.45e-06,0.0,0 RAX-2,1 37853U 11061D   20128.07389586 +.00000345 +00000-0 +26991-4 0  9997,2 37853 101.7136 185.0983 0168119 214.0891 144.9433 15.04085689464617,6932.451,95.73899999999999,670.863,437.76800000000003,0.0
